{"type": "FeatureCollection", "features": [ {"type": "Feature", "properties": {"norad_id": 66406, "name": "STARLINK-34840", "group": "last-30-days", "lat": 20.725140503348964, "lon": 105.90852702657142, "alt_km": 416.06892402575613, "timestamp": "2025-12-04T15:47:52.868230+00:00", "meta": {"OBJECT_NAME": "STARLINK-34840", "OBJECT_ID": "2025-257AC", "EPOCH": "2025-12-04T07:23:50.442144", "MEAN_MOTION": 15.49362882, "ECCENTRICITY": 0.00015895, "INCLINATION": 53.1589, "RA_OF_ASC_NODE": 304.0631, "ARG_OF_PERICENTER": 67.5792, "MEAN_ANOMALY": 292.5385, "EPHEMERIS_TYPE": 0, "CLASSIFICATION_TYPE": "U", "NORAD_CAT_ID": 66406, "ELEMENT_SET_NO": 999, "REV_AT_EPOCH": 501, "BSTAR": 0.0025144603, "MEAN_MOTION_DOT": 0.0014224, "MEAN_MOTION_DDOT": 0}, "tle": {"line1": "1 66406U 25257AC  25338.30822271  .00142240  00000+0  25145-2 0  9990", "line2": "2 66406  53.1589 304.0631 0001589  67.5792 292.5385 15.49362882  5019"}}, "geometry": {"type": "Point", "coordinates": [105.90852702657142, 20.725140503348964]}}, {"type": "Feature", "properties": {"norad_id": 66407, "name": "STARLINK-35686", "group": "last-30-days", "lat": 23.63354484098475, "lon": 103.24367521167603, "alt_km": 415.17860867978743, "timestamp": "2025-12-04T15:47:52.868241+00:00", "meta": {"OBJECT_NAME": "STARLINK-35686", "OBJECT_ID": "2025-257AD", "EPOCH": "2025-12-04T05:51:56.386368", "MEAN_MOTION": 15.49357825, "ECCENTRICITY": 0.00015513, "INCLINATION": 53.1592, "RA_OF_ASC_NODE": 304.3755, "ARG_OF_PERICENTER": 86.2718, "MEAN_ANOMALY": 273.8469, "EPHEMERIS_TYPE": 0, "CLASSIFICATION_TYPE": "U", "NORAD_CAT_ID": 66407, "ELEMENT_SET_NO": 999, "REV_AT_EPOCH": 506, "BSTAR": 0.0024385303, "MEAN_MOTION_DOT": 0.00137828, "MEAN_MOTION_DDOT": 0}, "tle": {"line1": "1 66407U 25257AD  25338.24440262  .00137828  00000+0  24385-2 0  9991", "line2": "2 66407  53.1592 304.3755 0001551  86.2718 273.8469 15.49357825  5060"}}, "geometry": {"type": "Point", "coordinates": [103.24367521167603, 23.63354484098475]}}, {"type": "Feature", "properties": {"norad_id": 66408, "name": "STARLINK-35679", "group": "last-30-days", "lat": 22.160309891852233, "lon": 104.61390448555207, "alt_km": 415.41063682824733, "timestamp": "2025-12-04T15:47:52.868251+00:00", "meta": {"OBJECT_NAME": "STARLINK-35679", "OBJECT_ID": "2025-257AE", "EPOCH": "2025-12-04T05:51:26.440992", "MEAN_MOTION": 15.49370265, "ECCENTRICITY": 0.00013085, "INCLINATION": 53.1591, "RA_OF_ASC_NODE": 304.3751, "ARG_OF_PERICENTER": 93.6816, "MEAN_ANOMALY": 266.4343, "EPHEMERIS_TYPE": 0, "CLASSIFICATION_TYPE": "U", "NORAD_CAT_ID": 66408, "ELEMENT_SET_NO": 999, "REV_AT_EPOCH": 506, "BSTAR": 0.00221754, "MEAN_MOTION_DOT": 0.00125146, "MEAN_MOTION_DDOT": 0}, "tle": {"line1": "1 66408U 25257AE  25338.24405603  .00125146  00000+0  22175-2 0  9997", "line2": "2 66408  53.1591 304.3751 0001308  93.6816 266.4343 15.49370265  5069"}}, "geometry": {"type": "Point", "coordinates": [104.61390448555207, 22.160309891852233]}}, {"type": "Feature", "properties": {"norad_id": 66409, "name": "CHUTIAN-2 A", "group": "last-30-days", "lat": 34.14811939138467, "lon": 37.89464419099509, "alt_km": 732.9606500827949, "timestamp": "2025-12-04T15:47:52.868264+00:00", "meta": {"OBJECT_NAME": "CHUTIAN-2 A", "OBJECT_ID": "2025-256A", "EPOCH": "2025-12-04T07:21:27.134784", "MEAN_MOTION": 14.49918429, "ECCENTRICITY": 0.00133167, "INCLINATION": 98.2772, "RA_OF_ASC_NODE": 43.2158, "ARG_OF_PERICENTER": 203.6455, "MEAN_ANOMALY": 156.4129, "EPHEMERIS_TYPE": 0, "CLASSIFICATION_TYPE": "U", "NORAD_CAT_ID": 66409, "ELEMENT_SET_NO": 999, "REV_AT_EPOCH": 365, "BSTAR": 5.0210259e-05, "MEAN_MOTION_DOT": 1.5e-06, "MEAN_MOTION_DDOT": 0}, "tle": {"line1": "1 66409U 25256A   25338.30656406  .00000150  00000+0  50210-4 0  9993", "line2": "2 66409  98.2772  43.2158 0013316 203.6455 156.4129 14.49918429  3657"}}, "geometry": {"type": "Point", "coordinates": [37.89464419099509, 34.14811939138467]}}, {"type": "Feature", "properties": {"norad_id": 66410, "name": "CHUTIAN-2 B", "group": "last-30-days", "lat": 76.96453336041733, "lon": -97.42665295804201, "alt_km": 717.7117215094895, "timestamp": "2025-12-04T15:47:52.868275+00:00", "meta": {"OBJECT_NAME": "CHUTIAN-2 B", "OBJECT_ID": "2025-256B", "EPOCH": "2025-12-04T08:43:03.053856", "MEAN_MOTION": 14.51009123, "ECCENTRICITY": 0.00133414, "INCLINATION": 98.28, "RA_OF_ASC_NODE": 43.3076, "ARG_OF_PERICENTER": 207.0925, "MEAN_ANOMALY": 152.9575, "EPHEMERIS_TYPE": 0, "CLASSIFICATION_TYPE": "U", "NORAD_CAT_ID": 66410, "ELEMENT_SET_NO": 999, "REV_AT_EPOCH": 366, "BSTAR": 0.0003561149, "MEAN_MOTION_DOT": 1.366e-05, "MEAN_MOTION_DDOT": 0}, "tle": {"line1": "1 66410U 25256B   25338.36322979  .00001366  00000+0  35611-3 0  9993", "line2": "2 66410  98.2800  43.3076 0013341 207.0925 152.9575 14.51009123  3661"}}, "geometry": {"type": "Point", "coordinates": [-97.42665295804201, 76.96453336041733]}}, {"type": "Feature", "properties": {"norad_id": 66411, "name": "ZK-1A R/B", "group": "last-30-days", "lat": 31.164808011684443, "lon": 40.773045002481204, "alt_km": 635.9489924297877, "timestamp": "2025-12-04T15:47:52.868286+00:00", "meta": {"OBJECT_NAME": "ZK-1A R/B", "OBJECT_ID": "2025-256C", "EPOCH": "2025-12-04T07:39:38.235456", "MEAN_MOTION": 15.01662759, "ECCENTRICITY": 0.02294036, "INCLINATION": 98.3248, "RA_OF_ASC_NODE": 45.4898, "ARG_OF_PERICENTER": 273.1287, "MEAN_ANOMALY": 84.3712, "EPHEMERIS_TYPE": 0, "CLASSIFICATION_TYPE": "U", "NORAD_CAT_ID": 66411, "ELEMENT_SET_NO": 999, "REV_AT_EPOCH": 378, "BSTAR": 0.0011754212, "MEAN_MOTION_DOT": 0.00027073, "MEAN_MOTION_DDOT": 0}, "tle": {"line1": "1 66411U 25256C   25338.31919254  .00027073  00000+0  11754-2 0  9991", "line2": "2 66411  98.3248  45.4898 0229403 273.1287  84.3712 15.01662759  3787"}}, "geometry": {"type": "Point", "coordinates": [40.773045002481204, 31.164808011684443]}}, {"type": "Feature", "properties": {"norad_id": 66412, "name": "HULIANWANG DIGUI 13A", "group": "last-30-days", "lat": 42.024611145179044, "lon": 66.82865410638253, "alt_km": 816.4988388128404, "timestamp": "2025-12-04T15:47:52.868296+00:00", "meta": {"OBJECT_NAME": "HULIANWANG DIGUI 13A", "OBJECT_ID": "2025-258A", "EPOCH": "2025-12-04T08:30:07.161984", "MEAN_MOTION": 14.23492997, "ECCENTRICITY": 0.00141275, "INCLINATION": 50.0046, "RA_OF_ASC_NODE": 297.2683, "ARG_OF_PERICENTER": 328.1065, "MEAN_ANOMALY": 31.8992, "EPHEMERIS_TYPE": 0, "CLASSIFICATION_TYPE": "U", "NORAD_CAT_ID": 66412, "ELEMENT_SET_NO": 999, "REV_AT_EPOCH": 346, "BSTAR": 0.00012502028, "MEAN_MOTION_DOT": 1.27e-06, "MEAN_MOTION_DDOT": 0}, "tle": {"line1": "1 66412U 25258A   25338.35424956  .00000127  00000+0  12502-3 0  9992", "line2": "2 66412  50.0046 297.2683 0014127 328.1065  31.8992 14.23492997  3468"}}, "geometry": {"type": "Point", "coordinates": [66.82865410638253, 42.024611145179044]}}, {"type": "Feature", "properties": {"norad_id": 66413, "name": "HULIANWANG DIGUI 13B", "group": "last-30-days", "lat": 48.90404411937207, "lon": 10.333467668939576, "alt_km": 810.0201648330003, "timestamp": "2025-12-04T15:47:52.868307+00:00", "meta": {"OBJECT_NAME": "HULIANWANG DIGUI 13B", "OBJECT_ID": "2025-258B", "EPOCH": "2025-12-04T07:00:04.222656", "MEAN_MOTION": 14.23483795, "ECCENTRICITY": 0.00134167, "INCLINATION": 50.0006, "RA_OF_ASC_NODE": 297.5937, "ARG_OF_PERICENTER": 328.6072, "MEAN_ANOMALY": 31.4039, "EPHEMERIS_TYPE": 0, "CLASSIFICATION_TYPE": "U", "NORAD_CAT_ID": 66413, "ELEMENT_SET_NO": 999, "REV_AT_EPOCH": 345, "BSTAR": 0.00013756544, "MEAN_MOTION_DOT": 1.56e-06, "MEAN_MOTION_DDOT": 0}, "tle": {"line1": "1 66413U 25258B   25338.29171554  .00000156  00000+0  13757-3 0  9994", "line2": "2 66413  50.0006 297.5937 0013416 328.6072  31.4039 14.23483795  3456"}}, "geometry": {"type": "Point", "coordinates": [10.333467668939576, 48.90404411937207]}}, {"type": "Feature", "properties": {"norad_id": 66414, "name": "HULIANWANG DIGUI 13C", "group": "last-30-days", "lat": 49.61020810176391, "lon": 35.37317179668726, "alt_km": 812.5629019646385, "timestamp": "2025-12-04T15:47:52.868317+00:00", "meta": {"OBJECT_NAME": "HULIANWANG DIGUI 13C", "OBJECT_ID": "2025-258C", "EPOCH": "2025-12-04T06:55:30.251712", "MEAN_MOTION": 14.23509643, "ECCENTRICITY": 0.00135553, "INCLINATION": 50.0049, "RA_OF_ASC_NODE": 297.5929, "ARG_OF_PERICENTER": 326.7218, "MEAN_ANOMALY": 33.2841, "EPHEMERIS_TYPE": 0, "CLASSIFICATION_TYPE": "U", "NORAD_CAT_ID": 66414, "ELEMENT_SET_NO": 999, "REV_AT_EPOCH": 345, "BSTAR": 0.00015418814, "MEAN_MOTION_DOT": 1.94e-06, "MEAN_MOTION_DDOT": 0}, "tle": {"line1": "1 66414U 25258C   25338.28854458  .00000194  00000+0  15419-3 0  9994", "line2": "2 66414  50.0049 297.5929 0013555 326.7218  33.2841 14.23509643  3452"}}, "geometry": {"type": "Point", "coordinates": [35.37317179668726, 49.61020810176391]}}, {"type": "Feature", "properties": {"norad_id": 66415, "name": "HULIANWANG DIGUI 13D", "group": "last-30-days", "lat": 38.10715517662372, "lon": 74.7960412015589, "alt_km": 816.7565992282198, "timestamp": "2025-12-04T15:47:52.868330+00:00", "meta": {"OBJECT_NAME": "HULIANWANG DIGUI 13D", "OBJECT_ID": "2025-258D", "EPOCH": "2025-12-04T06:46:59.958624", "MEAN_MOTION": 14.23497962, "ECCENTRICITY": 0.00133807, "INCLINATION": 50.0042, "RA_OF_ASC_NODE": 297.5571, "ARG_OF_PERICENTER": 333.373, "MEAN_ANOMALY": 26.6495, "EPHEMERIS_TYPE": 0, "CLASSIFICATION_TYPE": "U", "NORAD_CAT_ID": 66415, "ELEMENT_SET_NO": 999, "REV_AT_EPOCH": 345, "BSTAR": 0.00015977964, "MEAN_MOTION_DOT": 2.07e-06, "MEAN_MOTION_DDOT": 0}, "tle": {"line1": "1 66415U 25258D   25338.28263841  .00000207  00000+0  15978-3 0  9990", "line2": "2 66415  50.0042 297.5571 0013380 333.3730  26.6495 14.23497962  3459"}}, "geometry": {"type": "Point", "coordinates": [74.7960412015589, 38.10715517662372]}}]}